[{"OBJECT_NAME":"STARLINK-30994","OBJECT_ID":"2023-186L","EPOCH":"2026-03-09T22:44:49.936416","MEAN_MOTION":15.27566859,"ECCENTRICITY":0.00010163,"INCLINATION":42.9978,"RA_OF_ASC_NODE":258.7093,"ARG_OF_PERICENTER":266.5661,"MEAN_ANOMALY":93.5075,"EPHEMERIS_TYPE":0,"CLASSIFICATION_TYPE":"U","NORAD_CAT_ID":58483,"ELEMENT_SET_NO":999,"REV_AT_EPOCH":12784,"BSTAR":-3.2140926e-5,"MEAN_MOTION_DOT":-1.146e-5,"MEAN_MOTION_DDOT":0},{"OBJECT_NAME":"OBJECT B","OBJECT_ID":"2024-203B","EPOCH":"2026-03-09T23:52:52.928256","MEAN_MOTION":15.27506959,"ECCENTRICITY":0.00103904,"INCLINATION":97.4268,"RA_OF_ASC_NODE":139.5887,"ARG_OF_PERICENTER":321.1475,"MEAN_ANOMALY":38.9016,"EPHEMERIS_TYPE":0,"CLASSIFICATION_TYPE":"U","NORAD_CAT_ID":61870,"ELEMENT_SET_NO":999,"REV_AT_EPOCH":7381,"BSTAR":0.00063263842,"MEAN_MOTION_DOT":0.00016997,"MEAN_MOTION_DDOT":0}]
